IRIDIUM 159             
1 43578U 18061K   25246.87620568  .00000478  00000+0  16346-3 0  9995
2 43578  86.4040 176.3542 0002119  78.3171 281.8262 14.34226137372340
IRIDIUM 180             
1 43922U 19002A   25246.66642192  .00000059  00000+0  13892-4 0  9997
2 43922  86.3949 113.4035 0001994  87.4261 272.7163 14.34217958347926
IRIDIUM 176             
1 43923U 19002B   25246.87900672  .00001458  00000+0  22731-3 0  9996
2 43923  86.6074 113.2997 0002563  99.8247 260.3259 14.72249570357127
IRIDIUM 168             
1 43924U 19002C   25246.86938459  .00000346  00000+0  11649-3 0  9991
2 43924  86.3950 113.3878 0002122  86.4081 273.7357 14.34219061347931
IRIDIUM 173             
1 43925U 19002D   25246.92646762 -.00000136  00000+0 -55705-4 0  9993
2 43925  86.3949 113.2644 0001855  90.3853 269.7555 14.34217212347923
IRIDIUM 169             
1 43926U 19002E   25246.75201647  .00000503  00000+0  15776-3 0  9993
2 43926  86.4273 144.9503 0002452 115.9472 244.1979 14.38612570349047
IRIDIUM 172             
1 43927U 19002F   25246.92012598  .00000033  00000+0  46274-5 0  9995
2 43927  86.3946 113.2741 0001834  81.8789 278.2615 14.34217492347933
IRIDIUM 175             
1 43928U 19002G   25246.94206914  .00000669  00000+0  10211-3 0  9990
2 43928  86.1457  61.2824 0003144  89.9968 270.1609 14.72249782357122
